[{"OBJECT_NAME":"STARLINK-1704","OBJECT_ID":"2021-012F","EPOCH":"2026-03-09T08:31:59.662560","MEAN_MOTION":15.43808127,"ECCENTRICITY":0.00011238,"INCLINATION":53.0526,"RA_OF_ASC_NODE":64.3372,"ARG_OF_PERICENTER":164.7307,"MEAN_ANOMALY":195.3732,"EPHEMERIS_TYPE":0,"CLASSIFICATION_TYPE":"U","NORAD_CAT_ID":47625,"ELEMENT_SET_NO":999,"REV_AT_EPOCH":28005,"BSTAR":0.0010933867,"MEAN_MOTION_DOT":0.00050206,"MEAN_MOTION_DDOT":0},{"OBJECT_NAME":"BRO-6","OBJECT_ID":"2022-047AE","EPOCH":"2026-03-09T22:39:29.581632","MEAN_MOTION":15.44429794,"ECCENTRICITY":0.00055745,"INCLINATION":97.3417,"RA_OF_ASC_NODE":158.5545,"ARG_OF_PERICENTER":78.0361,"MEAN_ANOMALY":282.1512,"EPHEMERIS_TYPE":0,"CLASSIFICATION_TYPE":"U","NORAD_CAT_ID":52422,"ELEMENT_SET_NO":999,"REV_AT_EPOCH":21580,"BSTAR":0.00044779472,"MEAN_MOTION_DOT":0.00020658,"MEAN_MOTION_DDOT":0}]
